CCSDS_OMM_VERS = 2.0
CREATION_DATE  = 
ORIGINATOR     = 

OBJECT_NAME    = ATLAS CENTAUR R/B
OBJECT_ID      = 1972-065B
CENTER_NAME    = EARTH
REF_FRAME      = TEME
TIME_SYSTEM    = UTC
MEAN_ELEMENT_THEORY = SGP/SGP4

EPOCH          = 2026-03-11T01:04:33.624768
MEAN_MOTION    = 14.77690945
ECCENTRICITY   = .0033358
INCLINATION    = 35.0014
RA_OF_ASC_NODE = 297.8129
ARG_OF_PERICENTER = 20.3494
MEAN_ANOMALY   = 339.8529

EPHEMERIS_TYPE = 0
CLASSIFICATION_TYPE = U
NORAD_CAT_ID   = 6155
ELEMENT_SET_NO = 999
REV_AT_EPOCH   = 84146
BSTAR          = .20625E-3
MEAN_MOTION_DOT = .1491E-4
MEAN_MOTION_DDOT = 0

CCSDS_OMM_VERS = 2.0
CREATION_DATE  = 
ORIGINATOR     = 

OBJECT_NAME    = SL-8 R/B
OBJECT_ID      = 1975-112B
CENTER_NAME    = EARTH
REF_FRAME      = TEME
TIME_SYSTEM    = UTC
MEAN_ELEMENT_THEORY = SGP/SGP4

EPOCH          = 2026-03-11T04:08:24.575424
MEAN_MOTION    = 14.38204685
ECCENTRICITY   = .0014407
INCLINATION    = 74.0631
RA_OF_ASC_NODE = 16.1841
ARG_OF_PERICENTER = 108.8610
MEAN_ANOMALY   = 251.4108

EPHEMERIS_TYPE = 0
CLASSIFICATION_TYPE = U
NORAD_CAT_ID   = 8459
ELEMENT_SET_NO = 999
REV_AT_EPOCH   = 63208
BSTAR          = .10888E-3
MEAN_MOTION_DOT = .305E-5
MEAN_MOTION_DDOT = 0

CCSDS_OMM_VERS = 2.0
CREATION_DATE  = 
ORIGINATOR     = 

OBJECT_NAME    = SL-3 R/B
OBJECT_ID      = 1977-057B
CENTER_NAME    = EARTH
REF_FRAME      = TEME
TIME_SYSTEM    = UTC
MEAN_ELEMENT_THEORY = SGP/SGP4

EPOCH          = 2026-03-11T03:26:28.738752
MEAN_MOTION    = 15.45540078
ECCENTRICITY   = .0006172
INCLINATION    = 97.5778
RA_OF_ASC_NODE = 242.1278
ARG_OF_PERICENTER = 279.0001
MEAN_ANOMALY   = 81.0549

EPHEMERIS_TYPE = 0
CLASSIFICATION_TYPE = U
NORAD_CAT_ID   = 10114
ELEMENT_SET_NO = 999
REV_AT_EPOCH   = 66855
BSTAR          = .32856E-3
MEAN_MOTION_DOT = .15705E-3
MEAN_MOTION_DDOT = 0

CCSDS_OMM_VERS = 2.0
CREATION_DATE  = 
ORIGINATOR     = 

OBJECT_NAME    = SEASAT 1
OBJECT_ID      = 1978-064A
CENTER_NAME    = EARTH
REF_FRAME      = TEME
TIME_SYSTEM    = UTC
MEAN_ELEMENT_THEORY = SGP/SGP4

EPOCH          = 2026-03-11T02:05:23.406144
MEAN_MOTION    = 14.46161590
ECCENTRICITY   = .0002337
INCLINATION    = 108.0107
RA_OF_ASC_NODE = 128.4322
ARG_OF_PERICENTER = 285.4324
MEAN_ANOMALY   = 74.6563

EPHEMERIS_TYPE = 0
CLASSIFICATION_TYPE = U
NORAD_CAT_ID   = 10967
ELEMENT_SET_NO = 999
REV_AT_EPOCH   = 50671
BSTAR          = .1223E-3
MEAN_MOTION_DOT = .3E-5
MEAN_MOTION_DDOT = 0

CCSDS_OMM_VERS = 2.0
CREATION_DATE  = 
ORIGINATOR     = 

OBJECT_NAME    = SL-14 R/B
OBJECT_ID      = 1979-011B
CENTER_NAME    = EARTH
REF_FRAME      = TEME
TIME_SYSTEM    = UTC
MEAN_ELEMENT_THEORY = SGP/SGP4

EPOCH          = 2026-03-11T01:20:40.445088
MEAN_MOTION    = 14.91909869
ECCENTRICITY   = .0017343
INCLINATION    = 82.5207
RA_OF_ASC_NODE = 95.2741
ARG_OF_PERICENTER = 56.3397
MEAN_ANOMALY   = 303.9473

EPHEMERIS_TYPE = 0
CLASSIFICATION_TYPE = U
NORAD_CAT_ID   = 11267
ELEMENT_SET_NO = 999
REV_AT_EPOCH   = 52898
BSTAR          = .6277E-4
MEAN_MOTION_DOT = .662E-5
MEAN_MOTION_DDOT = 0

CCSDS_OMM_VERS = 2.0
CREATION_DATE  = 
ORIGINATOR     = 

OBJECT_NAME    = SL-8 R/B
OBJECT_ID      = 1979-089B
CENTER_NAME    = EARTH
REF_FRAME      = TEME
TIME_SYSTEM    = UTC
MEAN_ELEMENT_THEORY = SGP/SGP4

EPOCH          = 2026-03-11T04:50:57.438816
MEAN_MOTION    = 14.42351751
ECCENTRICITY   = .0017141
INCLINATION    = 74.0667
RA_OF_ASC_NODE = 88.2436
ARG_OF_PERICENTER = 260.7173
MEAN_ANOMALY   = 99.2045

EPHEMERIS_TYPE = 0
CLASSIFICATION_TYPE = U
NORAD_CAT_ID   = 11574
ELEMENT_SET_NO = 999
REV_AT_EPOCH   = 43632
BSTAR          = .10259E-3
MEAN_MOTION_DOT = .313E-5
MEAN_MOTION_DDOT = 0

CCSDS_OMM_VERS = 2.0
CREATION_DATE  = 
ORIGINATOR     = 

OBJECT_NAME    = SL-14 R/B
OBJECT_ID      = 1980-005B
CENTER_NAME    = EARTH
REF_FRAME      = TEME
TIME_SYSTEM    = UTC
MEAN_ELEMENT_THEORY = SGP/SGP4

EPOCH          = 2026-03-11T03:17:21.933024
MEAN_MOTION    = 14.90932181
ECCENTRICITY   = .0016306
INCLINATION    = 82.5142
RA_OF_ASC_NODE = 305.8635
ARG_OF_PERICENTER = 153.6741
MEAN_ANOMALY   = 206.5310

EPHEMERIS_TYPE = 0
CLASSIFICATION_TYPE = U
NORAD_CAT_ID   = 11672
ELEMENT_SET_NO = 999
REV_AT_EPOCH   = 47670
BSTAR          = .60568E-4
MEAN_MOTION_DOT = .624E-5
MEAN_MOTION_DDOT = 0

CCSDS_OMM_VERS = 2.0
CREATION_DATE  = 
ORIGINATOR     = 

OBJECT_NAME    = SL-8 R/B
OBJECT_ID      = 1981-003B
CENTER_NAME    = EARTH
REF_FRAME      = TEME
TIME_SYSTEM    = UTC
MEAN_ELEMENT_THEORY = SGP/SGP4

EPOCH          = 2026-03-11T01:26:55.529088
MEAN_MOTION    = 15.11032519
ECCENTRICITY   = .0262132
INCLINATION    = 82.9385
RA_OF_ASC_NODE = 288.7557
ARG_OF_PERICENTER = 173.8818
MEAN_ANOMALY   = 186.5729

EPHEMERIS_TYPE = 0
CLASSIFICATION_TYPE = U
NORAD_CAT_ID   = 12139
ELEMENT_SET_NO = 999
REV_AT_EPOCH   = 31488
BSTAR          = .53858E-3
MEAN_MOTION_DOT = .21046E-3
MEAN_MOTION_DDOT = 0

CCSDS_OMM_VERS = 2.0
CREATION_DATE  = 
ORIGINATOR     = 

OBJECT_NAME    = SL-3 R/B
OBJECT_ID      = 1981-046B
CENTER_NAME    = EARTH
REF_FRAME      = TEME
TIME_SYSTEM    = UTC
MEAN_ELEMENT_THEORY = SGP/SGP4

EPOCH          = 2026-03-11T03:31:55.265952
MEAN_MOTION    = 15.42038472
ECCENTRICITY   = .0019402
INCLINATION    = 81.2298
RA_OF_ASC_NODE = 287.9938
ARG_OF_PERICENTER = 17.3550
MEAN_ANOMALY   = 342.8352

EPHEMERIS_TYPE = 0
CLASSIFICATION_TYPE = U
NORAD_CAT_ID   = 12465
ELEMENT_SET_NO = 999
REV_AT_EPOCH   = 43865
BSTAR          = .33226E-3
MEAN_MOTION_DOT = .14312E-3
MEAN_MOTION_DDOT = 0

CCSDS_OMM_VERS = 2.0
CREATION_DATE  = 
ORIGINATOR     = 

OBJECT_NAME    = SL-3 R/B
OBJECT_ID      = 1981-103B
CENTER_NAME    = EARTH
REF_FRAME      = TEME
TIME_SYSTEM    = UTC
MEAN_ELEMENT_THEORY = SGP/SGP4

EPOCH          = 2026-03-11T03:40:59.194560
MEAN_MOTION    = 15.21396373
ECCENTRICITY   = .0012354
INCLINATION    = 81.1584
RA_OF_ASC_NODE = 211.7146
ARG_OF_PERICENTER = 281.8572
MEAN_ANOMALY   = 78.1274

EPHEMERIS_TYPE = 0
CLASSIFICATION_TYPE = U
NORAD_CAT_ID   = 12904
ELEMENT_SET_NO = 999
REV_AT_EPOCH   = 97345
BSTAR          = .29867E-3
MEAN_MOTION_DOT = .6737E-4
MEAN_MOTION_DDOT = 0

CCSDS_OMM_VERS = 2.0
CREATION_DATE  = 
ORIGINATOR     = 

OBJECT_NAME    = SL-3 R/B
OBJECT_ID      = 1982-013B
CENTER_NAME    = EARTH
REF_FRAME      = TEME
TIME_SYSTEM    = UTC
MEAN_ELEMENT_THEORY = SGP/SGP4

EPOCH          = 2026-03-11T05:26:23.729856
MEAN_MOTION    = 15.22035997
ECCENTRICITY   = .0022681
INCLINATION    = 81.1760
RA_OF_ASC_NODE = 158.9696
ARG_OF_PERICENTER = 172.3906
MEAN_ANOMALY   = 187.7675

EPHEMERIS_TYPE = 0
CLASSIFICATION_TYPE = U
NORAD_CAT_ID   = 13068
ELEMENT_SET_NO = 999
REV_AT_EPOCH   = 40458
BSTAR          = .21641E-3
MEAN_MOTION_DOT = .5006E-4
MEAN_MOTION_DDOT = 0

CCSDS_OMM_VERS = 2.0
CREATION_DATE  = 
ORIGINATOR     = 

OBJECT_NAME    = SL-3 R/B
OBJECT_ID      = 1982-039B
CENTER_NAME    = EARTH
REF_FRAME      = TEME
TIME_SYSTEM    = UTC
MEAN_ELEMENT_THEORY = SGP/SGP4

EPOCH          = 2026-03-11T04:20:23.635968
MEAN_MOTION    = 15.10091829
ECCENTRICITY   = .0029679
INCLINATION    = 81.1580
RA_OF_ASC_NODE = 214.2425
ARG_OF_PERICENTER = 319.6378
MEAN_ANOMALY   = 40.2644

EPHEMERIS_TYPE = 0
CLASSIFICATION_TYPE = U
NORAD_CAT_ID   = 13154
ELEMENT_SET_NO = 999
REV_AT_EPOCH   = 38186
BSTAR          = .1948E-3
MEAN_MOTION_DOT = .3227E-4
MEAN_MOTION_DDOT = 0

