ATLAS CENTAUR R/B       
1 06155U 72065B   26070.04483362  .00001491  00000+0  20625-3 0  9994
2 06155  35.0014 297.8129 0033358  20.3494 339.8529 14.77690945841468
SL-8 R/B                
1 08459U 75112B   26070.17250666  .00000305  00000+0  10888-3 0  9995
2 08459  74.0631  16.1841 0014407 108.8610 251.4108 14.38204685632081
SL-3 R/B                
1 10114U 77057B   26070.14338818  .00015705  00000+0  32856-3 0  9998
2 10114  97.5778 242.1278 0006172 279.0001  81.0549 15.45540078668559
SEASAT 1                
1 10967U 78064A   26070.08707646  .00000300  00000+0  12230-3 0  9994
2 10967 108.0107 128.4322 0002337 285.4324  74.6563 14.46161590506714
SL-14 R/B               
1 11267U 79011B   26070.05602367  .00000662  00000+0  62770-4 0  9998
2 11267  82.5207  95.2741 0017343  56.3397 303.9473 14.91909869528989
SL-8 R/B                
1 11574U 79089B   26070.20205369  .00000313  00000+0  10259-3 0  9999
2 11574  74.0667  88.2436 0017141 260.7173  99.2045 14.42351751436321
SL-14 R/B               
1 11672U 80005B   26070.13705941  .00000624  00000+0  60568-4 0  9995
2 11672  82.5142 305.8635 0016306 153.6741 206.5310 14.90932181476703
SL-8 R/B                
1 12139U 81003B   26070.06036492  .00021046  00000+0  53858-3 0  9997
2 12139  82.9385 288.7557 0262132 173.8818 186.5729 15.11032519314887
SL-3 R/B                
1 12465U 81046B   26070.14716743  .00014312  00000+0  33226-3 0  9994
2 12465  81.2298 287.9938 0019402  17.3550 342.8352 15.42038472438652
SL-3 R/B                
1 12904U 81103B   26070.15346290  .00006737  00000+0  29867-3 0  9991
2 12904  81.1584 211.7146 0012354 281.8572  78.1274 15.21396373973452
SL-3 R/B                
1 13068U 82013B   26070.22666354  .00005006  00000+0  21641-3 0  9998
2 13068  81.1760 158.9696 0022681 172.3906 187.7675 15.22035997404589
SL-3 R/B                
1 13154U 82039B   26070.18082912  .00003227  00000+0  19480-3 0  9990
2 13154  81.1580 214.2425 0029679 319.6378  40.2644 15.10091829381861
